NORAD_CAT_ID,OBJECT_NAME,OBJECT_TYPE,EPOCH,MEAN_MOTION,ECCENTRICITY,INCLINATION,RA_OF_ASC_NODE,ARG_OF_PERICENTER,MEAN_ANOMALY,BSTAR,MEAN_MOTION_DOT,MEAN_MOTION_DDOT,TLE_LINE0,TLE_LINE1,TLE_LINE2,SEMIMAJOR_AXIS,PERIOD,APOGEE,PERIGEE,DECAYED
53274.0,STARLINK-4050,PAYLOAD,2023-10-18 07:57:23,15.08844613,0.0001546,53.2155,144.7765,95.6278,264.489,9.0508e-05,1.153e-05,0.0,0 STARLINK-4050,1 53274U 22086AJ  23291.33152532  .00001153  00000-0  90508-4 0  9996,2 53274  53.2155 144.7765 0001546  95.6278 264.4890 15.08844613 69177,6917.866,95.437,540.801,538.662,0.0
53274.0,STARLINK-4050,PAYLOAD,2023-10-18 20:40:28,15.08849965,0.0001907,53.212,142.4,92.8635,267.2575,0.00014344,1.996e-05,0.0,0 STARLINK-4050,1 53274U 22086AJ  23291.86144369  .00001996  00000-0  14344-3 0  9991,2 53274  53.2120 142.4000 0001907  92.8635 267.2575 15.08849965 69438,6917.85,95.437,541.034,538.396,0.0
53274.0,STARLINK-4050,PAYLOAD,2023-10-19 14:09:43,15.08853908,0.000283,53.2114,139.1286,91.9672,268.1644,0.00013007,1.783e-05,0.0,0 STARLINK-4050,1 53274U 22086AJ  23292.59008152  .00001783  00000-0  13007-3 0  9990,2 53274  53.2114 139.1286 0002830  91.9672 268.1644 15.08853908 69548,6917.838,95.437,541.661,537.745,0.0
53274.0,STARLINK-4050,PAYLOAD,2023-10-19 20:31:16,15.08837137,0.0001767,53.216,137.9378,96.6669,263.4524,5.4759e-05,5.83e-06,0.0,0 STARLINK-4050,1 53274U 22086AJ  23292.85504746  .00000583  00000-0  54759-4 0  9996,2 53274  53.2160 137.9378 0001767  96.6669 263.4524 15.08837137 69409,6917.889,95.438,540.977,538.532,0.0
53274.0,STARLINK-4050,PAYLOAD,2023-10-19 23:42:02,15.08835438,0.0001188,53.2157,137.3456,86.8745,273.2383,-2.3293e-05,-6.58e-06,0.0,0 STARLINK-4050,1 53274U 22086AJ  23292.98752852 -.00000658  00000-0 -23293-4 0  9997,2 53274  53.2157 137.3456 0001188  86.8745 273.2383 15.08835438 69605,6917.894,95.438,540.581,538.937,0.0
53274.0,STARLINK-4050,PAYLOAD,2023-10-20 20:22:04,15.08829225,0.0001488,53.2145,133.4805,91.4237,268.6925,-3.1954e-05,-7.96e-06,0.0,0 STARLINK-4050,1 53274U 22086AJ  23293.84865759 -.00000796  00000-0 -31954-4 0  9990,2 53274  53.2145 133.4805 0001488  91.4237 268.6925 15.08829225 69559,6917.913,95.438,540.808,538.749,0.0
53274.0,STARLINK-4050,PAYLOAD,2023-10-21 05:54:22,15.08839815,0.000117,53.2159,131.6954,87.0264,273.0862,9.6785e-05,1.253e-05,0.0,0 STARLINK-4050,1 53274U 22086AJ  23294.24609331  .00001253  00000-0  96785-4 0  9997,2 53274  53.2159 131.6954 0001170  87.0264 273.0862 15.08839815 69611,6917.881,95.438,540.555,538.937,0.0
53274.0,STARLINK-4050,PAYLOAD,2023-10-21 20:12:50,15.08844714,0.0001172,53.2156,129.0192,89.8946,270.2181,0.00033701,5.08e-05,0.0,0 STARLINK-4050,1 53274U 22086AJ  23294.84225120  .00005080  00000-0  33701-3 0  9993,2 53274  53.2156 129.0192 0001172  89.8946 270.2181 15.08844714 69888,6917.866,95.437,540.542,538.92,0.0
53274.0,STARLINK-4050,PAYLOAD,2023-10-21 23:23:36,15.08851198,0.0001396,53.215,128.424,93.5567,266.5585,0.0004186,6.382e-05,0.0,0 STARLINK-4050,1 53274U 22086AJ  23294.97472823  .00006382  00000-0  41860-3 0  9992,2 53274  53.2150 128.4240 0001396  93.5567 266.5585 15.08851198 69721,6917.846,95.437,540.677,538.745,0.0
53274.0,STARLINK-4050,PAYLOAD,2023-10-22 13:42:05,15.08839455,0.0002022,53.2147,125.7489,98.3673,261.7548,7.6521e-05,9.3e-06,0.0,0 STARLINK-4050,1 53274U 22086AJ  23295.57089621  .00000930  00000-0  76521-4 0  9995,2 53274  53.2147 125.7489 0002022  98.3673 261.7548 15.08839455 69997,6917.882,95.438,541.146,538.348,0.0
53274.0,STARLINK-4050,PAYLOAD,2023-10-22 20:03:37,15.08841239,0.0001363,53.2157,124.5587,93.5644,266.5504,0.00010172,1.331e-05,0.0,0 STARLINK-4050,1 53274U 22086AJ  23295.83585530  .00001331  00000-0  10172-3 0  9999,2 53274  53.2157 124.5587 0001363  93.5644 266.5504 15.08841239 69859,6917.877,95.437,540.685,538.799,0.0
53274.0,STARLINK-4050,PAYLOAD,2023-10-23 23:05:10,15.0885087,0.0001472,53.2153,119.5033,98.0442,262.0717,0.00042555,6.493e-05,0.0,0 STARLINK-4050,1 53274U 22086AJ  23296.96192946  .00006493  00000-0  42555-3 0  9993,2 53274  53.2153 119.5033 0001472  98.0442 262.0717 15.08850870 70201,6917.847,95.437,540.73,538.694,0.0
53274.0,STARLINK-4050,PAYLOAD,2023-10-24 03:51:20,15.08838817,0.0001716,53.2153,118.6101,92.1792,267.9397,4.8452e-05,4.83e-06,0.0,0 STARLINK-4050,1 53274U 22086AJ  23297.16065299  .00000483  00000-0  48452-4 0  9992,2 53274  53.2153 118.6101 0001716  92.1792 267.9397 15.08838817 70059,6917.884,95.438,540.936,538.562,0.0
53274.0,STARLINK-4050,PAYLOAD,2023-10-24 13:23:39,15.08842343,0.0001436,53.2151,116.8268,98.4922,261.6233,0.00013895,1.924e-05,0.0,0 STARLINK-4050,1 53274U 22086AJ  23297.55809174  .00001924  00000-0  13895-3 0  9996,2 53274  53.2151 116.8268 0001436  98.4922 261.6233 15.08842343 70299,6917.873,95.437,540.732,538.745,0.0
53274.0,STARLINK-4050,PAYLOAD,2023-10-25 13:14:26,15.08845432,0.0001412,53.2151,112.3661,89.3544,270.761,0.00022687,3.325e-05,0.0,0 STARLINK-4050,1 53274U 22086AJ  23298.55169127  .00003325  00000-0  22687-3 0  9990,2 53274  53.2151 112.3661 0001412  89.3544 270.7610 15.08845432 70269,6917.864,95.437,540.706,538.752,0.0
53274.0,STARLINK-4050,PAYLOAD,2023-10-25 21:11:21,15.08851018,0.0001413,53.2151,110.8795,88.2408,271.8746,0.00037574,5.699e-05,0.0,0 STARLINK-4050,1 53274U 22086AJ  23298.88288948  .00005699  00000-0  37574-3 0  9996,2 53274  53.2151 110.8795 0001413  88.2408 271.8746 15.08851018 70492,6917.847,95.437,540.689,538.734,0.0
53274.0,STARLINK-4050,PAYLOAD,2023-10-26 11:29:50,15.08841842,0.0001424,53.2151,108.2029,87.0795,273.036,0.00014669,2.048e-05,0.0,0 STARLINK-4050,1 53274U 22086AJ  23299.47905189  .00002048  00000-0  14669-3 0  9990,2 53274  53.2151 108.2029 0001424  87.0795 273.0360 15.08841842 70402,6917.875,95.437,540.725,538.755,0.0
53274.0,STARLINK-4050,PAYLOAD,2023-10-26 13:05:13,15.08841855,0.0001417,53.2152,107.9056,86.8365,273.279,0.0001361,1.879e-05,0.0,0 STARLINK-4050,1 53274U 22086AJ  23299.54529171  .00001879  00000-0  13610-3 0  9997,2 53274  53.2152 107.9056 0001417  86.8365 273.2790 15.08841855 70594,6917.875,95.437,540.72,538.759,0.0
53274.0,STARLINK-4050,PAYLOAD,2023-10-26 21:02:08,15.08848837,0.000141,53.2156,106.4185,87.8102,272.3051,0.00019393,2.801e-05,0.0,0 STARLINK-4050,1 53274U 22086AJ  23299.87648792  .00002801  00000-0  19393-3 0  9994,2 53274  53.2156 106.4185 0001410  87.8102 272.3051 15.08848837 70641,6917.853,95.437,540.694,538.743,0.0
53274.0,STARLINK-4050,PAYLOAD,2023-10-27 11:20:36,15.08843215,0.0001419,53.2157,103.7421,87.5128,272.6027,0.00011088,1.477e-05,0.0,0 STARLINK-4050,1 53274U 22086AJ  23300.47264921  .00001477  00000-0  11088-3 0  9992,2 53274  53.2157 103.7421 0001419  87.5128 272.6027 15.08843215 70730,6917.871,95.437,540.717,538.754,0.0
53274.0,STARLINK-4050,PAYLOAD,2023-10-27 20:52:55,15.08852097,0.0001401,53.2158,101.9573,93.0182,267.0971,0.00017951,2.571e-05,0.0,0 STARLINK-4050,1 53274U 22086AJ  23300.87008279  .00002571  00000-0  17951-3 0  9999,2 53274  53.2158 101.9573 0001401  93.0182 267.0971 15.08852097 70613,6917.843,95.437,540.678,538.739,0.0
53274.0,STARLINK-4050,PAYLOAD,2023-10-28 11:11:24,15.08838697,0.0001339,53.2159,99.2811,95.9059,264.2085,6.3182e-05,7.18e-06,0.0,0 STARLINK-4050,1 53274U 22086AJ  23301.46625078  .00000718  00000-0  63182-4 0  9996,2 53274  53.2159  99.2811 0001339  95.9059 264.2085 15.08838697 70707,6917.884,95.438,540.676,538.823,0.0
53274.0,STARLINK-4050,PAYLOAD,2023-10-28 14:22:10,15.08833015,0.0001473,53.2157,98.6859,93.8076,266.3085,-4.0316e-05,-9.29e-06,0.0,0 STARLINK-4050,1 53274U 22086AJ  23301.59873339 -.00000929  00000-0 -40316-4 0  9995,2 53274  53.2157  98.6859 0001473  93.8076 266.3085 15.08833015 70909,6917.902,95.438,540.786,538.748,0.0
53274.0,STARLINK-4050,PAYLOAD,2023-10-28 20:43:43,15.08834076,0.0001523,53.2161,97.4963,93.7935,266.3232,-4.5727e-05,-1.016e-05,0.0,0 STARLINK-4050,1 53274U 22086AJ  23301.86369323 -.00001016  00000-0 -45727-4 0  9997,2 53274  53.2161  97.4963 0001523  93.7935 266.3232 15.08834076 70942,6917.898,95.438,540.817,538.71,0.0
53274.0,STARLINK-4050,PAYLOAD,2023-10-29 14:12:57,15.08846906,0.0001292,53.2177,94.2259,78.3701,281.7436,6.4755e-05,7.43e-06,0.0,0 STARLINK-4050,1 53274U 22086AJ  23302.59232752  .00000743  00000-0  64755-4 0  9999,2 53274  53.2177  94.2259 0001292  78.3701 281.7436 15.08846906 71050,6917.859,95.437,540.618,538.83,0.0
53274.0,STARLINK-4050,PAYLOAD,2023-10-29 17:23:43,15.08850425,0.0001256,53.216,93.6319,77.889,282.2242,0.00017582,2.512e-05,0.0,0 STARLINK-4050,1 53274U 22086AJ  23302.72480502  .00002512  00000-0  17582-3 0  9993,2 53274  53.2160  93.6319 0001256  77.8890 282.2242 15.08850425 70898,6917.849,95.437,540.582,538.845,0.0
53274.0,STARLINK-4050,PAYLOAD,2023-10-30 09:17:35,15.08834638,0.0001437,53.2173,90.6577,78.3892,281.7261,0.00010443,1.374e-05,0.0,0 STARLINK-4050,1 53274U 22086AJ  23303.38721548  .00001374  00000-0  10443-3 0  9998,2 53274  53.2173  90.6577 0001437  78.3892 281.7261 15.08834638 70998,6917.897,95.438,540.756,538.768,0.0
53274.0,STARLINK-4050,PAYLOAD,2023-10-31 13:54:31,15.08842394,0.0001643,53.2186,85.3071,83.6622,276.4557,6.1739e-05,6.95e-06,0.0,0 STARLINK-4050,1 53274U 22086AJ  23304.57953426  .00000695  00000-0  61739-4 0  9992,2 53274  53.2186  85.3071 0001643  83.6622 276.4557 15.08842394 71359,6917.873,95.437,540.875,538.601,0.0
53274.0,STARLINK-4050,PAYLOAD,2023-10-31 15:29:54,15.08842602,0.0001539,53.2185,85.0102,83.125,276.9917,5.0108e-05,5.1e-06,0.0,0 STARLINK-4050,1 53274U 22086AJ  23304.64577391  .00000510  00000-0  50108-4 0  9997,2 53274  53.2185  85.0102 0001539  83.1250 276.9917 15.08842602 71184,6917.872,95.437,540.802,538.673,0.0
53274.0,STARLINK-4050,PAYLOAD,2023-11-01 13:45:18,15.08840359,0.0001568,53.2185,80.8467,82.0057,278.1113,0.00014731,2.057e-05,0.0,0 STARLINK-4050,1 53274U 22086AJ  23305.57313626  .00002057  00000-0  14731-3 0  9998,2 53274  53.2185  80.8467 0001568  82.0057 278.1113 15.08840359 71501,6917.879,95.438,540.829,538.66,0.0
